[{"OBJECT_NAME":"KHAYYAM","OBJECT_ID":"2022-096A","EPOCH":"2026-03-09T23:16:46.350624","MEAN_MOTION":15.24771015,"ECCENTRICITY":0.00024081,"INCLINATION":97.351,"RA_OF_ASC_NODE":334.9969,"ARG_OF_PERICENTER":70.558,"MEAN_ANOMALY":289.5917,"EPHEMERIS_TYPE":0,"CLASSIFICATION_TYPE":"U","NORAD_CAT_ID":53370,"ELEMENT_SET_NO":999,"REV_AT_EPOCH":19946,"BSTAR":0.00026923471,"MEAN_MOTION_DOT":6.603e-5,"MEAN_MOTION_DDOT":0},{"OBJECT_NAME":"GAOFEN-11 05","OBJECT_ID":"2024-130A","EPOCH":"2026-03-09T22:37:47.360064","MEAN_MOTION":15.23784242,"ECCENTRICITY":0.00077059,"INCLINATION":97.4051,"RA_OF_ASC_NODE":148.5891,"ARG_OF_PERICENTER":100.8064,"MEAN_ANOMALY":259.4041,"EPHEMERIS_TYPE":0,"CLASSIFICATION_TYPE":"U","NORAD_CAT_ID":60249,"ELEMENT_SET_NO":999,"REV_AT_EPOCH":7035,"BSTAR":0.00034401659,"MEAN_MOTION_DOT":8.217e-5,"MEAN_MOTION_DDOT":0}]
